NORAD_CAT_ID,OBJECT_NAME,OBJECT_TYPE,EPOCH,MEAN_MOTION,ECCENTRICITY,INCLINATION,RA_OF_ASC_NODE,ARG_OF_PERICENTER,MEAN_ANOMALY,BSTAR,MEAN_MOTION_DOT,MEAN_MOTION_DDOT,TLE_LINE0,TLE_LINE1,TLE_LINE2,SEMIMAJOR_AXIS,PERIOD,APOGEE,PERIGEE,DECAYED
49727.0,STARLINK-3242,PAYLOAD,2022-06-24 05:15:47,15.08833741,0.0003065,53.2179,119.5861,55.528,304.6001,9.477e-05,1.22e-05,0.0,0 STARLINK-3242,1 49727U 21115D   22175.21929480  .00001220  00000-0  94770-4 0  9997,2 49727  53.2179 119.5861 0003065  55.5280 304.6001 15.08833741 30915,6917.9,95.438,541.885,537.644,0.0
49727.0,STARLINK-3242,PAYLOAD,2022-06-24 19:34:14,15.08841878,0.0003033,53.2177,116.9093,56.2365,303.8916,7.6228e-05,9.25e-06,0.0,0 STARLINK-3242,1 49727U 21115D   22175.81545049  .00000925  00000-0  76228-4 0  9997,2 49727  53.2177 116.9093 0003033  56.2365 303.8916 15.08841878 31005,6917.875,95.437,541.8380000000002,537.641,0.0
49727.0,STARLINK-3242,PAYLOAD,2022-06-25 01:55:47,15.08847503,0.0003061,53.2178,115.7201,57.0837,303.045,7.0075e-05,8.27e-06,0.0,0 STARLINK-3242,1 49727U 21115D   22176.08040660  .00000827  00000-0  70075-4 0  9991,2 49727  53.2178 115.7201 0003061  57.0837 303.0450 15.08847503 32151,6917.857,95.437,541.84,537.605,0.0
49727.0,STARLINK-3242,PAYLOAD,2022-06-25 03:31:10,15.08847704,0.0003075,53.2179,115.4229,57.5319,302.597,7.0238e-05,8.3e-06,0.0,0 STARLINK-3242,1 49727U 21115D   22176.14664634  .00000830  00000-0  70238-4 0  9996,2 49727  53.2179 115.4229 0003075  57.5319 302.5970 15.08847704 31056,6917.857,95.437,541.849,537.595,0.0
49727.0,STARLINK-3242,PAYLOAD,2022-06-25 13:03:29,15.08837227,0.0003098,53.218,113.6395,59.4655,300.6643,-2.8902e-05,-7.49e-06,0.0,0 STARLINK-3242,1 49727U 21115D   22176.54409532 -.00000749  00000-0 -28902-4 0  9996,2 49727  53.2180 113.6395 0003098  59.4655 300.6643 15.08837227 32226,6917.889,95.438,541.8969999999998,537.611,0.0
49727.0,STARLINK-3242,PAYLOAD,2022-06-25 19:25:01,15.08841671,0.0003077,53.2179,112.45,59.2499,300.8796,2.3628e-05,8.7e-07,0.0,0 STARLINK-3242,1 49727U 21115D   22176.80905067  .00000087  00000-0  23628-4 0  9992,2 49727  53.2179 112.4500 0003077  59.2499 300.8796 15.08841671 31150,6917.875,95.437,541.869,537.612,0.0
49727.0,STARLINK-3242,PAYLOAD,2022-06-26 01:46:34,15.08842654,0.0003109,53.2179,111.2608,59.8133,300.3167,7.1233e-05,8.45e-06,0.0,0 STARLINK-3242,1 49727U 21115D   22177.07400805  .00000845  00000-0  71233-4 0  9999,2 49727  53.2179 111.2608 0003109  59.8133 300.3167 15.08842654 32300,6917.871999999999,95.437,541.888,537.587,0.0
49727.0,STARLINK-3242,PAYLOAD,2022-06-26 12:54:16,15.08841097,0.00031,53.2177,109.1793,60.3293,299.8008,5.047e-05,5.15e-06,0.0,0 STARLINK-3242,1 49727U 21115D   22177.53768916  .00000515  00000-0  50470-4 0  9994,2 49727  53.2177 109.1793 0003100  60.3293 299.8008 15.08841097 31264,6917.877,95.437,541.887,537.597,0.0
49727.0,STARLINK-3242,PAYLOAD,2022-06-26 19:15:49,15.08840198,0.0003182,53.2176,107.9897,61.9012,298.2301,-2.598e-05,-7.02e-06,0.0,0 STARLINK-3242,1 49727U 21115D   22177.80265211 -.00000702  00000-0 -25980-4 0  9992,2 49727  53.2176 107.9897 0003182  61.9012 298.2301 15.08840198 32418,6917.88,95.438,541.946,537.544,0.0
49727.0,STARLINK-3242,PAYLOAD,2022-06-27 01:37:21,15.08836777,0.0003145,53.218,106.7996,62.2693,297.8618,-4.1154e-05,-9.44e-06,0.0,0 STARLINK-3242,1 49727U 21115D   22178.06761466 -.00000944  00000-0 -41154-4 0  9993,2 49727  53.2180 106.7996 0003145  62.2693 297.8618 15.08836777 31343,6917.89,95.438,541.931,537.58,0.0
49727.0,STARLINK-3242,PAYLOAD,2022-06-27 17:31:12,15.08843821,0.0003067,53.2181,103.8256,63.0602,297.0703,5.7854e-05,6.32e-06,0.0,0 STARLINK-3242,1 49727U 21115D   22178.73000663  .00000632  00000-0  57854-4 0  9998,2 49727  53.2181 103.8256 0003067  63.0602 297.0703 15.08843821 31449,6917.869000000002,95.437,541.855,537.612,0.0
49727.0,STARLINK-3242,PAYLOAD,2022-06-28 01:28:08,15.08837783,0.0002892,53.2182,102.3377,65.678,294.4514,-3.7627e-05,-8.87e-06,0.0,0 STARLINK-3242,1 49727U 21115D   22179.06121350 -.00000887  00000-0 -37627-4 0  9992,2 49727  53.2182 102.3377 0002892  65.6780 294.4514 15.08837783 32608,6917.887,95.438,541.753,537.752,0.0
49727.0,STARLINK-3242,PAYLOAD,2022-06-28 18:57:23,15.08831558,0.0002881,53.2182,99.0685,64.3422,295.7867,4.6502e-05,4.51e-06,0.0,0 STARLINK-3242,1 49727U 21115D   22179.78985654  .00000451  00000-0  46502-4 0  9993,2 49727  53.2182  99.0685 0002881  64.3422 295.7867 15.08831558 31607,6917.906,95.438,541.764,537.778,0.0
49727.0,STARLINK-3242,PAYLOAD,2022-06-28 23:43:33,15.08814965,0.0002628999999999,53.2177,98.1758,60.5772,299.5482,0.00015033,2.103e-05,0.0,0 STARLINK-3242,1 49727U 21115D   22179.98858541  .00002103  00000-0  15033-3 0  9999,2 49727  53.2177  98.1758 0002629  60.5772 299.5482 15.08814965 32742,6917.956999999999,95.439,541.641,538.003,0.0
49727.0,STARLINK-3242,PAYLOAD,2022-06-29 04:29:43,15.08824042,0.0002808,53.2176,97.2846,58.8955,301.2312,-5.274600000000001e-05,-1.128e-05,0.0,0 STARLINK-3242,1 49727U 21115D   22180.18730742 -.00001128  00000-0 -52746-4 0  9996,2 49727  53.2176  97.2846 0002808  58.8955 301.2312 15.08824042 31661,6917.929,95.439,541.737,537.852,0.0
49727.0,STARLINK-3242,PAYLOAD,2022-06-29 21:58:58,15.08823,0.0002815,53.2183,94.0142,59.7891,300.3379,6.7599e-06,-1.81e-06,0.0,0 STARLINK-3242,1 49727U 21115D   22180.91595169 -.00000181  00000-0  67599-5 0  9999,2 49727  53.2183  94.0142 0002815  59.7891 300.3379 15.08823000 31778,6917.932,95.439,541.745,537.85,0.0
49727.0,STARLINK-3242,PAYLOAD,2022-06-30 02:45:07,15.08826534,0.000285,53.2183,93.1216,62.0522,298.0758,3.6158e-05,2.87e-06,0.0,0 STARLINK-3242,1 49727U 21115D   22181.11466999  .00000287  00000-0  36158-4 0  9992,2 49727  53.2183  93.1216 0002850  62.0522 298.0758 15.08826534 31800,6917.922,95.438,541.758,537.815,0.0
49727.0,STARLINK-3242,PAYLOAD,2022-06-30 17:03:35,15.08828118,0.0002818,53.2183,90.4458,64.3564,295.7719,8.306700000000001e-05,1.033e-05,0.0,0 STARLINK-3242,1 49727U 21115D   22181.71083081  .00001033  00000-0  83067-4 0  9996,2 49727  53.2183  90.4458 0002818  64.3564 295.7719 15.08828118 31893,6917.917,95.438,541.731,537.832,0.0
49727.0,STARLINK-3242,PAYLOAD,2022-07-01 02:35:54,15.08832372,0.0002867,53.2183,88.6617,64.9391,295.1899,0.00011042,1.469e-05,0.0,0 STARLINK-3242,1 49727U 21115D   22182.10827026  .00001469  00000-0  11042-3 0  9991,2 49727  53.2183  88.6617 0002867  64.9391 295.1899 15.08832372 33068,6917.904,95.438,541.752,537.785,0.0
49727.0,STARLINK-3242,PAYLOAD,2022-07-01 10:32:50,15.08834332,0.0002903,53.2185,87.1749,65.5647,294.5647,0.00013626,1.88e-05,0.0,0 STARLINK-3242,1 49727U 21115D   22182.43946975  .00001880  00000-0  13626-3 0  9999,2 49727  53.2185  87.1749 0002903  65.5647 294.5647 15.08834332 32007,6917.898,95.438,541.771,537.754,0.0
49727.0,STARLINK-3242,PAYLOAD,2022-07-01 21:40:31,15.088418099999998,0.0002903,53.2186,85.0934,66.6484,293.4813,0.00011507,1.543e-05,0.0,0 STARLINK-3242,1 49727U 21115D   22182.90314693  .00001543  00000-0  11507-3 0  9999,2 49727  53.2186  85.0934 0002903  66.6484 293.4813 15.08841810 32071,6917.875,95.437,541.748,537.732,0.0
49727.0,STARLINK-3242,PAYLOAD,2022-07-02 10:23:36,15.08849268,0.0002924,53.2186,82.7148,68.2273,291.903,0.00015007,2.101e-05,0.0,0 STARLINK-3242,1 49727U 21115D   22183.43306010  .00002101  00000-0  15007-3 0  9992,2 49727  53.2186  82.7148 0002924  68.2273 291.9030 15.08849268 32157,6917.852,95.437,541.74,537.694,0.0
49727.0,STARLINK-3242,PAYLOAD,2022-07-03 02:17:27,15.08846276,0.0002947,53.2188,79.741,69.3958,290.735,6.302800000000001e-05,7.15e-06,0.0,0 STARLINK-3242,1 49727U 21115D   22184.09546289  .00000715  00000-0  63028-4 0  9995,2 49727  53.2188  79.7410 0002947  69.3958 290.7350 15.08846276 33366,6917.861,95.437,541.765,537.688,0.0
49727.0,STARLINK-3242,PAYLOAD,2022-07-03 10:14:23,15.08850456,0.0002932,53.2188,78.2544,70.3464,289.7844,7.5567e-05,9.15e-06,0.0,0 STARLINK-3242,1 49727U 21115D   22184.42665790  .00000915  00000-0  75567-4 0  9994,2 49727  53.2188  78.2544 0002932  70.3464 289.7844 15.08850456 32300,6917.848000000001,95.437,541.742,537.685,0.0
49727.0,STARLINK-3242,PAYLOAD,2022-07-03 21:22:04,15.08850876,0.0002918,53.2186,76.1722,71.6097,288.5212,4.7221e-05,4.63e-06,0.0,0 STARLINK-3242,1 49727U 21115D   22184.89033465  .00000463  00000-0  47221-4 0  9997,2 49727  53.2186  76.1722 0002918  71.6097 288.5212 15.08850876 32372,6917.847,95.437,541.731,537.694,0.0
49727.0,STARLINK-3242,PAYLOAD,2022-07-04 10:05:11,15.08832445,0.0002887,53.2185,73.7944,70.5077,289.6227,-0.00014986,-2.673e-05,0.0,0 STARLINK-3242,1 49727U 21115D   22185.42027159 -.00002673  00000-0 -14986-3 0  9998,2 49727  53.2185  73.7944 0002887  70.5077 289.6227 15.08832445 32450,6917.903,95.438,541.766,537.771,0.0
49727.0,STARLINK-3242,PAYLOAD,2022-07-04 22:48:16,15.08829411,0.0002774,53.2189,71.4151,72.0113,288.1181,-0.00012161,-2.223e-05,0.0,0 STARLINK-3242,1 49727U 21115D   22185.95019486 -.00002223  00000-0 -12161-3 0  9994,2 49727  53.2189  71.4151 0002774  72.0113 288.1181 15.08829411 32533,6917.913000000001,95.438,541.697,537.859,0.0
49727.0,STARLINK-3242,PAYLOAD,2022-07-05 09:55:58,15.08832435,0.0002797,53.219,69.3339,73.273,286.8569,-7.967e-05,-1.556e-05,0.0,0 STARLINK-3242,1 49727U 21115D   22186.41387446 -.00001556  00000-0 -79670-4 0  9997,2 49727  53.2190  69.3339 0002797  73.2730 286.8569 15.08832435 33718,6917.904,95.438,541.703,537.8340000000002,0.0
49727.0,STARLINK-3242,PAYLOAD,2022-07-05 21:03:39,15.08862812,0.0003419,53.2188,67.2517,73.9203,286.2166,-0.00039109,-6.512e-05,0.0,0 STARLINK-3242,1 49727U 21115D   22186.87754615 -.00006512  00000-0 -39109-3 0  9992,2 49727  53.2188  67.2517 0003419  73.9203 286.2166 15.08862812 32677,6917.811,95.436,542.0409999999998,537.31,0.0
